[Satellite]
VERSION=1.1
NAME=STF-1
NICKNAME=STF-1
TLE1=1 43852U 18104D   22342.30093794  .00018321  00000+0  61577-3 0  9997
TLE2=2 43852  85.0281 296.3774 0012177  10.6162 349.5339 15.30633285221096
STATUS=0
